[{"OBJECT_NAME":"STARLINK-3562","OBJECT_ID":"2022-022K","EPOCH":"2026-03-09T23:29:22.419744","MEAN_MOTION":15.08837729,"ECCENTRICITY":0.00013025,"INCLINATION":53.2181,"RA_OF_ASC_NODE":7.8249,"ARG_OF_PERICENTER":77.2749,"MEAN_ANOMALY":282.8389,"EPHEMERIS_TYPE":0,"CLASSIFICATION_TYPE":"U","NORAD_CAT_ID":51861,"ELEMENT_SET_NO":999,"REV_AT_EPOCH":22307,"BSTAR":0.00032739848,"MEAN_MOTION_DOT":4.926e-5,"MEAN_MOTION_DDOT":0},{"OBJECT_NAME":"CZ-4B DEB","OBJECT_ID":"2008-053J","EPOCH":"2026-03-09T11:59:22.469568","MEAN_MOTION":15.1637526,"ECCENTRICITY":0.00601661,"INCLINATION":97.7872,"RA_OF_ASC_NODE":170.5072,"ARG_OF_PERICENTER":304.792,"MEAN_ANOMALY":54.7659,"EPHEMERIS_TYPE":0,"CLASSIFICATION_TYPE":"U","NORAD_CAT_ID":35573,"ELEMENT_SET_NO":999,"REV_AT_EPOCH":91868,"BSTAR":0.0017688276,"MEAN_MOTION_DOT":0.00036031,"MEAN_MOTION_DDOT":0}]
